[{"OBJECT_NAME":"ONEWEB-0025","OBJECT_ID":"2020-008H","EPOCH":"2026-03-09T22:33:43.965216","MEAN_MOTION":13.10877605,"ECCENTRICITY":0.00015138,"INCLINATION":87.8781,"RA_OF_ASC_NODE":56.0018,"ARG_OF_PERICENTER":88.3912,"MEAN_ANOMALY":271.7389,"EPHEMERIS_TYPE":0,"CLASSIFICATION_TYPE":"U","NORAD_CAT_ID":45138,"ELEMENT_SET_NO":999,"REV_AT_EPOCH":29557,"BSTAR":0.0014929849,"MEAN_MOTION_DOT":5.38e-6,"MEAN_MOTION_DDOT":0},{"OBJECT_NAME":"THORAD AGENA D DEB","OBJECT_ID":"1970-025RU","EPOCH":"2026-02-23T15:04:36.884352","MEAN_MOTION":13.23273729,"ECCENTRICITY":0.0185195,"INCLINATION":99.3774,"RA_OF_ASC_NODE":188.6895,"ARG_OF_PERICENTER":222.7336,"MEAN_ANOMALY":135.9257,"EPHEMERIS_TYPE":0,"CLASSIFICATION_TYPE":"U","NORAD_CAT_ID":42514,"ELEMENT_SET_NO":999,"REV_AT_EPOCH":59158,"BSTAR":0.0010493,"MEAN_MOTION_DOT":4.46e-6,"MEAN_MOTION_DDOT":0}]
